satname,norad_id,inclination_deg,eccentricity,mean_motion_rev_per_day,perigee_km,apogee_km,l1,l2
STARLINK-1364,45589,53.0542,0.0001048,15.06414917,546.4400681213692,547.8916115966031,1 45589U 20025BL  25345.64691621  .00001791  00000+0  13903-3 0  9990,2 45589  53.0542 111.8598 0001048  78.0641 282.0465 15.06414917312230
STARLINK-1365,45590,53.0604,8.11e-05,15.06450138,546.4962631453345,547.6195297575387,1 45590U 20025BM  25345.46355336 -.00010449  00000+0 -68273-3 0  9994,2 45590  53.0604 142.6774 0000811 126.4440 233.6624 15.06450138311807
STARLINK-1443,45660,53.0558,0.0001385,15.06398697,546.2563901201138,548.1747127768649,1 45660U 20035D   25345.51516011  .00000603  00000+0  59401-4 0  9991,2 45660  53.0558 102.4549 0001385 101.6493 258.4652 15.06398697305447
STARLINK-1446,45663,53.0273,0.0002006,15.37258266,452.85046605992466,455.59160810440244,1 45663U 20035G   25345.59020117  .00043660  00000+0  11825-2 0  9995,2 45663  53.0273  56.4740 0002006   4.7788 355.3233 15.37258266306091
STARLINK-1448,45665,53.0517,0.0001807,15.06395355,545.9743811739381,548.477207287774,1 45665U 20035J   25345.58519260  .00000875  00000+0  77652-4 0  9991,2 45665  53.0517 102.1313 0001807  92.9585 267.1611 15.06395355305446
STARLINK-1451,45668,53.0549,0.0001327,15.06398308,546.297749237654,548.1357381212256,1 45668U 20035M   25345.58892025  .00001162  00000+0  96919-4 0  9994,2 45668  53.0549 102.4360 0001327  91.2885 268.8256 15.06398308305456
STARLINK-1452,45669,53.0364,0.0005924,15.31567328,467.07800306682293,475.19302113916183,1 45669U 20035N   25345.66668981  .00115943  00000+0  37039-2 0  9995,2 45669  53.0364  76.5117 0005924 144.2873 142.3286 15.31567328  5809
STARLINK-1453,45670,53.0541,0.0001085,15.18560392,509.44325544343155,510.9380225410923,1 45670U 20035P   25345.66668981  .02021409  00000+0  86918-1 0  9991,2 45670  53.0541  70.7430 0001085  89.3931  91.5418 15.18560392  5744
STARLINK-1454,45671,53.0539,0.0001341,15.064157,546.2347573283832,548.0921229064224,1 45671U 20035Q   25345.61100217  .00005146  00000+0  36396-3 0  9995,2 45671  53.0539 102.0220 0001341  80.3324 279.7817 15.06415700305442
STARLINK-1456,45673,53.0543,0.0001067,15.06464969,546.2735310210337,547.7513579124825,1 45673U 20035S   25345.62568480  .00006994  00000+0  48711-3 0  9994,2 45673  53.0543 101.9536 0001067  71.1611 288.9494 15.06464969305465
STARLINK-1457,45674,53.0511,0.0004996,15.47492808,420.6649042144536,427.4616627377027,1 45674U 20035T   25345.66668981  .00147532  00000+0  27806-2 0  9991,2 45674  53.0511  93.0689 0004996 329.6940 338.0005 15.47492808  5764
STARLINK-1458,45675,53.0549,0.0001172,15.06398646,546.4040564190236,548.0273590937231,1 45675U 20035U   25345.62206627  .00002614  00000+0  19432-3 0  9991,2 45675  53.0549 101.9705 0001172  85.7503 274.3620 15.06398646305423
STARLINK-1460,45676,53.0561,0.0001298,15.06411147,546.2784883910426,548.0763000077777,1 45676U 20035V   25345.32716323  .00001575  00000+0  12453-3 0  9999,2 45676  53.0561 103.2930 0001298  89.2972 270.8166 15.06411147305373
STARLINK-1392,45677,53.0539,0.0001224,15.0641454,546.3193380818366,548.0146524998827,1 45677U 20035W   25345.60361194  .00001908  00000+0  14688-3 0  9995,2 45677  53.0539 102.0544 0001224  88.6508 271.4621 15.06414540305456
STARLINK-1394,45679,53.053,0.0001358,15.06414245,546.2274430036341,548.1083558143146,1 45679U 20035Y   25345.60086598  .00010904  00000+0  74952-3 0  9995,2 45679  53.0530  92.0641 0001358  96.5020 263.6124 15.06414245305598
STARLINK-1402,45685,53.0536,0.0003735,15.31445213,468.94126803930976,474.05794658497234,1 45685U 20035AE  25345.58770000  .00073814  00000+0  23853-2 0  9999,2 45685  53.0536  78.3759 0003735 295.5486  64.5128 15.31445213305797
STARLINK-1404,45686,53.0539,0.0001198,15.06412514,546.343552433621,548.0028567586423,1 45686U 20035AF  25345.49395280  .00002575  00000+0  19160-3 0  9996,2 45686  53.0539  92.5481 0001198  95.4816 264.6310 15.06412514305589
STARLINK-1413,45689,53.056,0.0001296,15.06419124,546.2554286756749,548.0504638297425,1 45689U 20035AJ  25345.57872825  .00005655  00000+0  39801-3 0  9999,2 45689  53.0560  92.1616 0001296  92.3813 267.7324 15.06419124305509
STARLINK-1417,45693,53.0527,0.0001374,15.07635218,542.477354582079,544.3794007478618,1 45693U 20035AN  25345.56664098  .00043462  00000+0  28229-2 0  9993,2 45693  53.0527  92.1315 0001374 358.5448   1.5537 15.07635218305584
STARLINK-1420,45695,53.0536,0.0001359,15.06417927,546.2154674078638,548.0977622123701,1 45695U 20035AQ  25345.57595323  .00017443  00000+0  11864-2 0  9997,2 45695  53.0536  72.1662 0001359  75.4380 284.6760 15.06417927305870
STARLINK-1422,45696,53.0564,8.94e-05,15.06415436,546.5451272937635,547.7833711571247,1 45696U 20035AR  25345.58609504  .00002471  00000+0  18465-3 0  9996,2 45696  53.0564  92.1332 0000894  69.5329 290.5756 15.06415436305580
STARLINK-1351,45697,53.0546,0.0001367,15.06435886,546.1548945870281,548.0482548133514,1 45697U 20035AS  25345.62849203  .00014617  00000+0  99720-3 0  9992,2 45697  53.0546  71.9419 0001367  90.5963 269.5183 15.06435886305880
STARLINK-1398,45699,53.0482,0.0002378,15.5861972,390.04106338451766,393.26077451877063,1 45699U 20035AU  25345.66668981  .00120940  00000+0  15314-2 0  9993,2 45699  53.0482  17.1926 0002378 347.3273 122.4689 15.58619720  5924
STARLINK-1400,45700,53.0542,0.0001301,15.06414179,546.2671194925579,548.0690838800174,1 45700U 20035AV  25345.53634597  .00001541  00000+0  12230-3 0  9998,2 45700  53.0542  72.3540 0001301  94.8202 265.2935 15.06414179305860
STARLINK-1403,45701,53.0546,0.0001217,15.06418011,546.3135491657422,547.9991655689255,1 45701U 20035AW  25345.63217996  .00003037  00000+0  22260-3 0  9996,2 45701  53.0546  71.9226 0001217  75.6962 284.4162 15.06418011305872
STARLINK-1407,45703,53.0417,0.0008019,15.45357226,424.8689278508173,435.78834503854614,1 45703U 20035AY  25345.40647015  .00037674  00000+0  78113-3 0  9994,2 45703  53.0417  20.7259 0008019 182.2231 177.8740 15.45357226306589
STARLINK-1411,45706,53.0514,0.0003807,15.46490404,424.41161583044595,429.5930489181155,1 45706U 20035BB  25345.61072808  .00078689  00000+0  15532-2 0  9998,2 45706  53.0514  46.9546 0003807  15.2385 344.8735 15.46490404306222
STARLINK-1423,45710,53.0533,0.0001511,15.06416132,546.1157034264907,548.2085288193839,1 45710U 20035BF  25345.45894065  .00007547  00000+0  52477-3 0  9997,2 45710  53.0533  72.7034 0001511  83.0257 277.0904 15.06416132305853
STARLINK-1433,45711,53.0538,0.0001461,15.06430086,546.1075702633398,548.1311301688738,1 45711U 20035BG  25345.63955934  .00009716  00000+0  66969-3 0  9992,2 45711  53.0538  71.8898 0001461  88.1977 271.9179 15.06430086305879
STARLINK-1434,45712,53.0515,0.0002401,15.18446779,508.88026303149854,512.1882029575827,1 45712U 20035BH  25345.45123626  .00050289  00000+0  24104-2 0  9993,2 45712  53.0515  65.8908 0002401 201.6095 158.4798 15.18446779305952
STARLINK-1465,45731,53.0538,0.0001373,15.06404026,546.2483701927604,548.1500675184589,1 45731U 20038B   25345.54004117  .00006646  00000+0  46459-3 0  9996,2 45731  53.0538 272.3373 0001373  92.7585 267.3561 15.06404026302905
STARLINK-1471,45735,53.0485,0.0001618,15.43090863,435.8907880515753,438.096164273662,1 45735U 20038F   25345.32205245  .00031670  00000+0  71166-3 0  9999,2 45735  53.0485 203.3271 0001618 104.9640 255.1544 15.43090863303864
STARLINK-1474,45738,53.0317,0.0001529,15.75603332,341.8872291596972,343.94252682398746,1 45738U 20038J   25345.49669818  .00167100  00000+0  10558-2 0  9995,2 45738  53.0317 151.1318 0001529 122.7650 237.3516 15.75603332304603
STARLINK-1475,45739,53.0327,0.0006634,16.20615832,213.50455935559148,222.25615518521863,1 45739U 20038K   25345.87969284  .01946723  11844-4  93127-3 0  9992,2 45739  53.0327 109.1228 0006634 332.0175  28.0505 16.20615832305230
STARLINK-1480,45741,53.052,7.29e-05,15.06433389,546.604376902309,547.6140778022573,1 45741U 20038M   25345.52158865  .00008372  00000+0  57974-3 0  9997,2 45741  53.0520 272.4157 0000729 176.2849 183.8145 15.06433389302918
STARLINK-1500,45744,53.0372,0.0001936,15.29878579,474.84794781777964,477.50193740195755,1 45744U 20038Q   25345.42590280  .00037662  00000+0  12899-2 0  9990,2 45744  53.0372 245.1795 0001936  48.2613 311.8552 15.29878579303284
STARLINK-1504,45746,53.0259,0.0003238,15.44466806,430.73977946639843,435.1506363042254,1 45746U 20038S   25345.33082090  .00128233  00000+0  26895-2 0  9993,2 45746  53.0259 206.2073 0003238  86.1600 273.9775 15.44466806303818
STARLINK-1506,45747,53.067,0.0003443,15.23157902,493.9555972949711,498.68935008855533,1 45747U 20038T   25345.16425303  .00038952  00000+0  16328-2 0  9991,2 45747  53.0670 250.8803 0003443  51.9147 308.2159 15.23157902303185
STARLINK-1464,45751,53.0549,0.0001489,15.06423948,546.106988268185,548.1693352113507,1 45751U 20038X   25345.05903004  .00011993  00000+0  82215-3 0  9998,2 45751  53.0549 254.4992 0001489  98.4374 261.6784 15.06423948303127
STARLINK-1477,45754,53.0516,0.0006493,15.08939195,534.9486232626741,543.9317890225711,1 45754U 20038AA  25345.16691888  .00025936  00000+0  16365-2 0  9991,2 45754  53.0516 253.5935 0006493  92.5341 267.6392 15.08939195303141
STARLINK-1478,45755,53.0528,0.0001393,15.06394468,546.2638093574806,548.1932161893392,1 45755U 20038AB  25345.15856262  .00021784  00000+0  14771-2 0  9996,2 45755  53.0528 254.0480 0001393  78.9261 281.1885 15.06394468303121
STARLINK-1484,45756,53.0125,8.29e-05,15.69598116,359.4883431707667,360.60553406778945,1 45756U 20038AC  25345.44875602  .00134156  00000+0  10993-2 0  9998,2 45756  53.0125 141.0492 0000829 154.4848 205.6209 15.69598116304731
STARLINK-1493,45759,53.0539,0.000166,15.06414437,546.0177104503446,548.3169114815864,1 45759U 20038AF  25345.47923375  .00010945  00000+0  75225-3 0  9994,2 45759  53.0539 252.6093 0001660  89.9944 270.1235 15.06414437303179
